#aV2022  5 16  0  0  0.00000000     288 DD+AD WGS84 FIT  NGA
## 2210  86400.00000000   300.00000000 59715 0.0000000000000
+   32     1  2  3  4  5  6  7  8  9 10 11 12 13 14 15 16 17
+         18 19 20 21 22 23 24 25 26 27 28 29 30 31 32  0  0
+          0  0  0  0  0  0  0  0  0  0  0  0  0  0  0  0  0
+          0  0  0  0  0  0  0  0  0  0  0  0  0  0  0  0  0
+          0  0  0  0  0  0  0  0  0  0  0  0  0  0  0  0  0
++         2  2  2  2  2  2  2  2  2  2  2  2  2  2  2  2  2
++         2  2  2  2  2  2  2  2  2  2  2  2  2  2  2  0  0
++         0  0  0  0  0  0  0  0  0  0  0  0  0  0  0  0  0
++         0  0  0  0  0  0  0  0  0  0  0  0  0  0  0  0  0
++         0  0  0  0  0  0  0  0  0  0  0  0  0  0  0  0  0
%c cc cc ccc ccc cccc cccc cccc cccc ccccc ccccc ccccc ccccc
%c cc cc ccc ccc cccc cccc cccc cccc ccccc ccccc ccccc ccccc
%f  0.0000000  0.000000000  0.00000000000  0.000000000000000
%f  0.0000000  0.000000000  0.00000000000  0.000000000000000
%i    0    0    0    0      0      0      0      0         0
%i    0    0    0    0      0      0      0      0         0
/*      NGA, ST. LOUIS,MO.                                  
/*   EPHEMERIS COMPUTED FROM 2 DAYS OF DATA                 
/*   EPOCHA v7 SMOOTHER                                     
/*   G2139 IERS2010 SATIGS SATAPC                           
*  2022  5 16  2 55  0.00000000
P  1 -13796.917732  21262.002169   6999.673628    362.065403                    
V  1   1551.702845  -9478.462132  30897.362851     -0.082981                    
P  2  15730.071982  -2592.318285 -20621.108380   -653.240519                    
V  2  -7483.522043  26631.204915  -8640.233605      0.000868                    
P  3 -18117.919602  12731.198482 -14687.552748   -245.723667                    
V  3 -18553.584994    846.974616  23908.321308     -0.135551                    
P  4  -8496.233478  13484.016934 -21222.927635   -166.840369                    
V  4 -16519.220468 -21352.990925  -7034.115466      0.035864                    
P  5  26113.426944  -5251.157617    460.847312    -81.999448                    
V  5   1265.493103   2504.434778 -31649.053663     -0.013760                    
P  6   8945.735379  14102.627341 -20570.802779    305.029938                    
V  6 -10544.675068  24007.255222  11914.407679      0.146153                    
P  7  -3699.422443  24833.387760   8243.332027    322.101905                    
V  7  -6761.885749   8139.616421 -29460.062472      0.002831                    
P  8 -15176.505203   4831.360127  21268.263054    -68.188312                    
V  8 -16851.132640 -21140.792714  -6861.562645     -0.015814                    
P  9   1731.235148  20681.736497 -16620.416438   -336.409367                    
V  9 -14849.641848 -14999.430891 -20319.149265      0.029097                    
P 10 -12049.806474 -12278.355483  20462.915000   -416.145634                    
V 10  25149.566502  -4478.788992  11925.253048     -0.145283                    
P 11  16376.002181   -773.757213 -20895.785617    -24.452247                    
V 11 -10437.577190  24395.464283  -9101.200893      0.046749                    
P 12  21781.079168  -9734.854939 -11811.354555   -216.116029                    
V 12  14735.124846   1077.822041  27008.468796     -0.058436                    
P 13  18068.960965   5420.276108  18614.754041    312.345143                    
V 13  11019.611174  21215.514787 -16569.003956      0.068159                    
P 14  10306.582995  13502.880927  20436.177209   -108.459434                    
V 14 -25709.522458   3727.449188  10413.181246     -0.016894                    
P 15  14452.506878  -7408.706021  20645.578142    -60.918960                    
V 15  19022.557911  19510.311375  -5881.955738      0.029820                    
P 16 -26536.505651  -1206.657030  -3891.866590   -501.223848                    
V 16   4412.626715  -2342.769630 -31146.073380     -0.032743                    
P 17  13441.304968  22746.124379   2843.125989    613.150255                    
V 17  -3604.703351  -1248.676994  31912.944358      0.045868                    
P 18   5115.258064 -24956.551021   7298.043532    168.984737                    
V 18   5844.058017  -7623.035031 -30238.711617     -0.101659                    
P 19  17022.434114  19786.755380  -5748.756365    157.880979                    
V 19   1981.841714   6914.234386  30881.139666      0.049674                    
P 20  24400.927004    145.455124 -10195.192981    514.945004                    
V 20 -11533.482877   6896.806769 -27725.066056     -0.010714                    
P 21 -16265.069135  12958.806512  16756.263388    161.095420                    
V 21   4019.753322 -20064.791095  20870.844999      0.001553                    
P 22 -18031.950137 -18086.743493  -7203.360877    259.819237                    
V 22  -3173.617877  -9482.770203  29850.290953      0.061680                    
P 23    346.286873 -15228.496089  21741.480203    -22.142085                    
V 23  27257.941454  -4418.655367  -3627.389445     -0.024765                    
P 24  14377.856207 -19003.303035  10987.873967    240.305902                    
V 24   -960.142503  14988.058409  26872.889154     -0.068529                    
P 25   8321.719170 -15563.248485 -20055.368386    325.235904                    
V 25  24831.943240  -2533.652721  12718.889081      0.048166                    
P 26 -21943.404307  -6044.197485 -14027.954238    205.904911                    
V 26  16764.178326  -5898.094107 -23520.273590      0.025859                    
P 27 -19948.227744  -8025.016615  15633.562845    203.489108                    
V 27 -11240.066585 -16686.384930 -22213.801274      0.060268                    
P 28  18235.608275  10475.392821  16593.714979    357.171379                    
V 28 -20074.990199   2738.014407  21212.109034     -0.066636                    
P 29     25.557851 -20386.861659 -17041.812729   -514.073749                    
V 29  13196.596454  17052.944567 -20506.081219     -0.040054                    
P 30   3446.061653  21259.665986  15462.710529   -528.044727                    
V 30 -10004.226764  17122.464663 -21679.118894     -0.014400                    
P 31 -11283.538218 -11600.789915 -21111.005717   -177.788818                    
V 31  11272.290454 -24128.880914   7737.398737     -0.015779                    
P 32 -16358.926657 -21050.878896    583.050824   -128.086437                    
V 32   2503.062769  -1286.611078  31550.716260     -0.087212                    
EOF
